KUZGTU-1 (RS47S)
1 57217U 23091AV  25151.20080091  .00008249  00000-0  38574-3 0  9994
2 57217  97.5584 208.4767 0013286   4.9401 355.1962 15.19957364106170
STRATOSAT-TK1-A (RS45S)
1 57322U 23091AW  25151.20511598  .00145288  00000-0  14847-2 0  9993
2 57322  97.5461 219.1777 0003188 270.5961  89.4932 15.64564808104767
STRATOSAT-TK1-E (RS52SE)
1 57323U 23091AX  25151.19169775  .00022968  00000-0  72291-3 0  9995
2 57323  97.5555 212.6639 0008989 356.8668   3.2516 15.32909266104334
STRATOSAT-TK1-B (RS52SB)
1 57324U 23091AY  25151.19294041  .00139360  00000-0  14623-2 0  9990
2 57324  97.5472 219.0626 0003145 274.3824  85.7075 15.63909998104754
STRATOSAT-TK1-D (RS52SD)
1 57326U 23091BA  25151.16134372  .00020823  00000-0  67193-3 0  9993
2 57326  97.5548 212.3617 0009206 357.7914   2.3285 15.32128442104151
STRATOSAT-TK1-V (RS52SV)
1 57327U 23091BB  25151.15344691  .00156472  00000-0  16060-2 0  9996
2 57327  97.5475 219.1467 0003245 274.7675  85.3213 15.64417431104592
VERONIKA
1 58261U 23174F   25151.21089169  .00125713  00000-0  11353-2 0  9993
2 58261  97.4121 236.8399 0003610 119.4743 240.6878 15.67726159 87219
ENSO
1 58470U 23185J   25151.18001275  .00051070  00000-0  76427-3 0  9993
2 58470  97.3734 226.0041 0008508 121.2674 238.9414 15.54791336 83576
METEOR M2-4
1 59051U 24039A   25151.14761762  .00000026  00000-0  30954-4 0  9999
2 59051  98.6488 111.4606 0006766 186.7112 173.3976 14.22366398 64959
ZORKIY-2M 2
1 59064U 24039P   25151.18774454  .00040861  00000-0  59345-3 0  9994
2 59064  97.4275 123.4400 0011989  56.2571 303.9823 15.55616260 70156
PARS-1
1 59065U 24039Q   25151.19512120  .00008702  00000-0  24706-3 0  9997
2 59065  97.4395 119.1142 0013258  57.6700 302.5826 15.36358743 69823
SITRO-AIS-25
1 59066U 24039R   25151.18398502  .00005060  00000-0  43228-3 0  9997
2 59066  95.3753 333.6202 0154719 219.0421 139.9555 14.89020211 67799
SITRO-AIS-26
1 59067U 24039S   25151.20894896  .00004145  00000-0  35587-3 0  9990
2 59067  95.3756 333.5983 0154916 219.1984 139.7939 14.88873921 67799
SITRO-AIS-27
1 59068U 24039T   25151.20599459  .00004447  00000-0  37902-3 0  9996
2 59068  95.3757 333.7171 0154202 218.5534 140.4598 14.89197064 67804
SITRO-AIS-28
1 59071U 24039U   25151.19332166  .00005169  00000-0  43983-3 0  9996
2 59071  95.3757 333.7342 0154026 218.5022 140.5135 14.89237882 67805
SONATE-2
1 59112U 24043Q   25150.91580897  .00017350  00000-0  50465-3 0  9990
2 59112  97.5131 281.9024 0012224 145.1654 215.0391 15.35433678 68852
HORS-1
1 57188U 23091Y   25151.15979698  .00007318  00000-0  35456-3 0  9997
2 57188  97.5591 208.7038 0010154 358.8368   1.2841 15.18799452106180
HORS-2
1 57196U 23091AG  25151.14902296  .00009070  00000-0  40796-3 0  9995
2 57196  97.5605 209.9131 0009645 357.1285   2.9893 15.21304176106257
ZORKIY-2M 6
1 59774U 24092B   25151.12012033  .00008394  00000-0  39459-3 0  9992
2 59774  97.6135 268.5583 0012085  80.7183 279.5417 15.19782487 57341
ZORKIY-2M 4
1 59775U 24092C   25151.24173143  .00007651  00000-0  35537-3 0  9994
2 59775  97.6264 269.5017 0012132  83.3562 276.9053 15.20230495 57381
SITRO-AIS-53
1 59776U 24092D   25151.09060384  .00011850  00000-0  51781-3 0  9995
2 59776  97.6212 269.1572 0010648  61.6945 298.5363 15.22208940 57365
SITRO-AIS-54
1 59777U 24092E   25150.89216604  .00011822  00000-0  51713-3 0  9995
2 59777  97.6212 268.9531 0010931  62.4696 297.7649 15.22171696 57337
SITRO-AIS-56
1 59778U 24092F   25150.86029570  .00012460  00000-0  53995-3 0  9990
2 59778  97.6208 268.9740 0011118  63.4440 296.7935 15.22475024 57330
RASSVET 1-4
1 59779U 24092G   25151.23126315  .00000223  00000-0  10047-3 0  9993
2 59779  98.6355 266.5468 0011113 251.0702 108.9277 14.31609296 54246
RASSVET 1-5
1 59780U 24092H   25151.23073354  .00000220  00000-0  99274-4 0  9996
2 59780  98.6354 266.5438 0011329 251.7932 108.2018 14.31608360 54242
RASSVET 1-6
1 59781U 24092J   25151.22968956  .00000219  00000-0  98816-4 0  9996
2 59781  98.6354 266.5461 0011105 251.2982 108.6996 14.31608957 54242
SITRO-AIS-55
1 59809U 24092K   25150.58649121  .00012128  00000-0  53185-3 0  9996
2 59809  97.6207 268.5634 0011226  63.6442 296.5945 15.22074903 56784
MESAT-1
1 60209U 24125G   25151.12778304  .00017777  00000-0  50968-3 0  9997
2 60209  97.2800   2.8537 0019467 166.8273 193.3484 15.35757961 50501
ISTSAT-1
1 60238U 24128D   25151.20375997  .00007059  00000-0  49439-3 0  9995
2 60238  61.9902 109.9366 0050191  55.1179 305.4616 15.05103244 48840
IONOSFERA-M 01
1 61735U 24199A   25151.17186166  .00000047  00000-0  41065-4 0  9998
2 61735  98.7705  22.2371 0001687 122.0640 238.0702 14.22668112 73380
IONOSFERA-M 02
1 61736U 24199B   25151.20673154  .00000049  00000-0  41840-4 0  9994
2 61736  98.7703  22.1868 0001364  46.1341 313.9949 14.22669332 76514
SITRO-AIS-16
1 61737U 24199C   25151.16011416  .00003276  00000-0  30534-3 0  9999
2 61737  97.3598   9.2430 0005130 278.5283  81.5358 14.94879284 74691
SITRO-AIS-15
1 61738U 24199D   25151.15179778  .00003380  00000-0  31446-3 0  9994
2 61738  97.3594   9.2537 0004879 278.1652  81.9016 14.94920903 74691
SITRO-AIS-21
1 61739U 24199E   25151.16858594  .00002350  00000-0  22930-3 0  9990
2 61739  97.3597   8.7900 0011363 268.2404  91.7515 14.93273691 74703
SITRO-AIS-22
1 61740U 24199F   25151.16340376  .00002781  00000-0  26986-3 0  9999
2 61740  97.3599   8.8033 0011412 269.4270  90.5643 14.93345960 74858
SITRO-AIS-24
1 61741U 24199G   25151.16586224  .00002653  00000-0  25821-3 0  9999
2 61741  97.3600   8.8031 0011379 271.1693  88.8224 14.93271712 74826
SITRO-AIS-23
1 61742U 24199H   25151.15779121  .00003034  00000-0  29381-3 0  9998
2 61742  97.3599   8.8110 0011208 270.3626  89.6310 14.93372491 74708
SITRO-AIS-13
1 61743U 24199J   25151.19842261  .00002707  00000-0  25167-3 0  9993
2 61743  97.3590   9.3417 0005036 279.6487  80.4166 14.95106712 74863
CSTP-2.11
1 61744U 24199K   25151.20596876  .00013020  00000-0  40772-3 0  9993
2 61744  97.3575  20.0691 0011331 207.5016 152.5628 15.33168852 75528
POLYTECH UNIVERSE-5 (RS70S)
1 61745U 24199L   25151.17783106  .00016706  00000-0  49788-3 0  9994
2 61745  97.3550  20.1817 0008767 213.2120 146.8574 15.34708126 78672
COLIBRI-S (RS67S)
1 61746U 24199M   25151.20193503  .00011559  00000-0  37182-3 0  9991
2 61746  97.3576  19.9191 0011307 208.8063 151.2556 15.32339787 78651
POLYTECH UNIVERSE-4 (RS71S)
1 61747U 24199N   25151.16689367  .00011011  00000-0  36032-3 0  9991
2 61747  97.3576  19.8120 0011487 207.5885 152.4748 15.31796944 78646
SITRO-AIS-44
1 61748U 24199P   25151.18477189  .00017586  00000-0  50997-3 0  9990
2 61748  97.3541  20.3158 0008463 212.0190 148.0540 15.35561100 78680
VIZARD-ION (RS68S)
1 61749U 24199Q   25151.16237574  .00014650  00000-0  44903-3 0  9990
2 61749  97.3577  20.1270 0010898 205.7082 154.3620 15.33828630 78666
MTUSI-1
1 61750U 24199R   25151.17004836  .00014634  00000-0  45199-3 0  9996
2 61750  97.3548  19.8909 0010552 218.1992 141.8504 15.33588797 78653
VLADIVOSTOK-1
1 61751U 24199S   25151.16565461  .00007654  00000-0  27478-3 0  9996
2 61751  97.3559  19.3055 0010187 226.2047 133.8352 15.28911629 78625
SITRO-AIS-14
1 61752U 24199T   25151.14515058  .00003114  00000-0  28983-3 0  9991
2 61752  97.3593   9.2619 0004901 278.9171  81.1495 14.94965184 77996
HORS-3 (RS81S)
1 61753U 24199U   25151.20185317  .00014439  00000-0  44568-3 0  9999
2 61753  97.3543  19.9921 0009451 214.5275 145.5354 15.33621279 78664
HORS-4 (RS82S)
1 61754U 24199V   25151.14406822  .00016170  00000-0  48722-3 0  9990
2 61754  97.3540  20.0614 0009620 214.7656 145.2959 15.34360196 78664
SITRO-AIS-43
1 61755U 24199W   25151.17771490  .00018307  00000-0  52957-3 0  9999
2 61755  97.3542  20.3245 0008442 211.6467 148.4270 15.35631517 78689
SITRO-AIS-42
1 61756U 24199X   25151.17475341  .00017826  00000-0  51517-3 0  9992
2 61756  97.3544  20.3296 0008542 210.9246 149.1496 15.35665803 78689
HORIZON (RS59S)
1 61757U 24199Y   25151.15161562  .00021198  00000-0  57789-3 0  9992
2 61757  97.3564  20.5761 0010263 201.4256 158.6561 15.37434741 78696
SITRO-AIS-20
1 61758U 24199Z   25151.18862264  .00002393  00000-0  22257-3 0  9991
2 61758  97.3590   9.3482 0004891 283.2218  76.8458 14.95182863 78006
SITRO-AIS-19
1 61759U 24199AA  25151.18727037  .00002302  00000-0  21442-3 0  9995
2 61759  97.3591   9.3511 0004850 285.5427  74.5259 14.95165245 78002
SITRO-AIS-41
1 61760U 24199AB  25151.19501199  .00017390  00000-0  50751-3 0  9995
2 61760  97.3547  20.3096 0008531 211.1870 148.8868 15.35363319 78685
2024-199AC
1 61761U 24199AC  25151.19496581  .00014813  00000-0  44866-3 0  9991
2 61761  97.3542  20.1505 0008286 213.4476 146.6244 15.34226601 78672
ARCTICSAT-1 (RS74S)
1 61762U 24199AD  25151.20272843  .00020205  00000-0  55402-3 0  9997
2 61762  97.3563  20.6558 0010369 200.6027 159.4801 15.37263909 78704
SIT-HSE
1 61763U 24199AE  25151.18219164  .00011207  00000-0  33119-3 0  9995
2 61763  97.3547  20.3235 0008052 216.5352 143.5343 15.35075120 78685
SIT-2086
1 61764U 24199AF  25151.16697113  .00011191  00000-0  32443-3 0  9999
2 61764  97.3545  20.3437 0008034 209.2056 150.8740 15.35680379 75528
MORDOVIA-IOT (RS50S)
1 61765U 24199AG  25151.16364088  .00029020  00000-0  69962-3 0  9998
2 61765  97.3544  21.1485 0009660 194.7066 165.3901 15.41146706 75589
RUZAEVKA-390 (RS44S)
1 61766U 24199AH  25151.16928498  .00027449  00000-0  69024-3 0  9992
2 61766  97.3545  20.9856 0009695 195.2617 164.8337 15.39875841 75578
2024-199AJ (? AHMAT-2)
1 61767U 24199AJ  25151.18538299  .00037065  00000-0  84188-3 0  9994
2 61767  97.3534  21.3952 0009281 190.7294 169.3757 15.42893443 75603
HOD-HOD
1 61768U 24199AK  25151.15506520  .00012437  00000-0  38830-3 0  9993
2 61768  97.3552  20.0753 0006705 217.4235 142.6541 15.33314489 75512
KOSAR
1 61769U 24199AL  25151.16430232  .00014417  00000-0  43883-3 0  9995
2 61769  97.3548  20.2013 0006530 217.4449 142.6339 15.34089292 75520
